[{"OBJECT_NAME":"HULIANWANG DIGUI-17","OBJECT_ID":"2025-030G","EPOCH":"2026-03-05T06:53:34.575072","MEAN_MOTION":13.29338222,"ECCENTRICITY":7.531e-5,"INCLINATION":50.0047,"RA_OF_ASC_NODE":248.2162,"ARG_OF_PERICENTER":157.8694,"MEAN_ANOMALY":202.2211,"EPHEMERIS_TYPE":0,"CLASSIFICATION_TYPE":"U","NORAD_CAT_ID":62977,"ELEMENT_SET_NO":999,"REV_AT_EPOCH":5204,"BSTAR":6.8521847e-5,"MEAN_MOTION_DOT":-9.2e-7,"MEAN_MOTION_DDOT":0},{"OBJECT_NAME":"HULIANWANG DIGUI-18","OBJECT_ID":"2025-030H","EPOCH":"2026-03-05T06:41:31.132320","MEAN_MOTION":13.29338246,"ECCENTRICITY":7.721e-5,"INCLINATION":50.0051,"RA_OF_ASC_NODE":248.1829,"ARG_OF_PERICENTER":158.8154,"MEAN_ANOMALY":201.275,"EPHEMERIS_TYPE":0,"CLASSIFICATION_TYPE":"U","NORAD_CAT_ID":62978,"ELEMENT_SET_NO":999,"REV_AT_EPOCH":5204,"BSTAR":7.1781259e-5,"MEAN_MOTION_DOT":-9.1e-7,"MEAN_MOTION_DDOT":0},{"OBJECT_NAME":"HULIANWANG DIGUI-19","OBJECT_ID":"2025-030J","EPOCH":"2026-03-05T03:52:49.683360","MEAN_MOTION":13.29341421,"ECCENTRICITY":8.112e-5,"INCLINATION":50.0036,"RA_OF_ASC_NODE":248.851,"ARG_OF_PERICENTER":153.459,"MEAN_ANOMALY":206.6323,"EPHEMERIS_TYPE":0,"CLASSIFICATION_TYPE":"U","NORAD_CAT_ID":62979,"ELEMENT_SET_NO":999,"REV_AT_EPOCH":5202,"BSTAR":8.245978e-5,"MEAN_MOTION_DOT":-8.6e-7,"MEAN_MOTION_DDOT":0},{"OBJECT_NAME":"HULIANWANG DIGUI-20","OBJECT_ID":"2025-086A","EPOCH":"2026-03-05T07:07:47.372448","MEAN_MOTION":13.24420207,"ECCENTRICITY":0.00017299,"INCLINATION":86.5126,"RA_OF_ASC_NODE":348.1158,"ARG_OF_PERICENTER":91.7978,"MEAN_ANOMALY":268.3354,"EPHEMERIS_TYPE":0,"CLASSIFICATION_TYPE":"U","NORAD_CAT_ID":63687,"ELEMENT_SET_NO":999,"REV_AT_EPOCH":4112,"BSTAR":0.00011086218,"MEAN_MOTION_DOT":6.2e-7,"MEAN_MOTION_DDOT":0},{"OBJECT_NAME":"HULIANWANG DIGUI-21","OBJECT_ID":"2025-086B","EPOCH":"2026-03-05T05:29:47.372064","MEAN_MOTION":13.24421805,"ECCENTRICITY":0.00016182,"INCLINATION":86.5154,"RA_OF_ASC_NODE":348.1679,"ARG_OF_PERICENTER":94.6917,"MEAN_ANOMALY":265.4402,"EPHEMERIS_TYPE":0,"CLASSIFICATION_TYPE":"U","NORAD_CAT_ID":63688,"ELEMENT_SET_NO":999,"REV_AT_EPOCH":4110,"BSTAR":0.00010696111,"MEAN_MOTION_DOT":6.1e-7,"MEAN_MOTION_DDOT":0},{"OBJECT_NAME":"HULIANWANG DIGUI-22","OBJECT_ID":"2025-086C","EPOCH":"2026-03-05T05:40:40.905120","MEAN_MOTION":13.24421535,"ECCENTRICITY":0.00017997,"INCLINATION":86.5119,"RA_OF_ASC_NODE":348.0685,"ARG_OF_PERICENTER":91.9832,"MEAN_ANOMALY":268.1508,"EPHEMERIS_TYPE":0,"CLASSIFICATION_TYPE":"U","NORAD_CAT_ID":63689,"ELEMENT_SET_NO":999,"REV_AT_EPOCH":4110,"BSTAR":0.00012523932,"MEAN_MOTION_DOT":6.8e-7,"MEAN_MOTION_DDOT":0},{"OBJECT_NAME":"HULIANWANG DIGUI-23","OBJECT_ID":"2025-086D","EPOCH":"2026-03-05T06:02:21.913728","MEAN_MOTION":13.24422261,"ECCENTRICITY":0.0001744,"INCLINATION":86.516,"RA_OF_ASC_NODE":348.1999,"ARG_OF_PERICENTER":88.2942,"MEAN_ANOMALY":271.8392,"EPHEMERIS_TYPE":0,"CLASSIFICATION_TYPE":"U","NORAD_CAT_ID":63690,"ELEMENT_SET_NO":999,"REV_AT_EPOCH":4110,"BSTAR":0.00014762801,"MEAN_MOTION_DOT":7.8e-7,"MEAN_MOTION_DDOT":0},{"OBJECT_NAME":"HULIANWANG DIGUI-24","OBJECT_ID":"2025-086E","EPOCH":"2026-03-05T06:13:19.609536","MEAN_MOTION":13.24420375,"ECCENTRICITY":0.0001779,"INCLINATION":86.5167,"RA_OF_ASC_NODE":348.224,"ARG_OF_PERICENTER":92.5386,"MEAN_ANOMALY":267.5952,"EPHEMERIS_TYPE":0,"CLASSIFICATION_TYPE":"U","NORAD_CAT_ID":63691,"ELEMENT_SET_NO":999,"REV_AT_EPOCH":4110,"BSTAR":0.00018554513,"MEAN_MOTION_DOT":9.4e-7,"MEAN_MOTION_DDOT":0},{"OBJECT_NAME":"HULIANWANG DIGUI-25","OBJECT_ID":"2025-086F","EPOCH":"2026-03-05T06:24:10.376064","MEAN_MOTION":13.24421841,"ECCENTRICITY":0.0001679,"INCLINATION":86.5106,"RA_OF_ASC_NODE":348.0434,"ARG_OF_PERICENTER":91.3573,"MEAN_ANOMALY":268.7753,"EPHEMERIS_TYPE":0,"CLASSIFICATION_TYPE":"U","NORAD_CAT_ID":63692,"ELEMENT_SET_NO":999,"REV_AT_EPOCH":4110,"BSTAR":0.0002145214,"MEAN_MOTION_DOT":1.07e-6,"MEAN_MOTION_DDOT":0},{"OBJECT_NAME":"HULIANWANG DIGUI-26","OBJECT_ID":"2025-086G","EPOCH":"2026-03-05T05:51:22.845024","MEAN_MOTION":13.2442129,"ECCENTRICITY":0.0001749,"INCLINATION":86.5154,"RA_OF_ASC_NODE":348.1775,"ARG_OF_PERICENTER":96.6626,"MEAN_ANOMALY":263.4707,"EPHEMERIS_TYPE":0,"CLASSIFICATION_TYPE":"U","NORAD_CAT_ID":63693,"ELEMENT_SET_NO":999,"REV_AT_EPOCH":4110,"BSTAR":0.00012601534,"MEAN_MOTION_DOT":6.9e-7,"MEAN_MOTION_DDOT":0},{"OBJECT_NAME":"HULIANWANG DIGUI-27","OBJECT_ID":"2025-086H","EPOCH":"2026-03-05T06:35:09.905280","MEAN_MOTION":13.24420217,"ECCENTRICITY":0.00017833,"INCLINATION":86.5115,"RA_OF_ASC_NODE":348.0753,"ARG_OF_PERICENTER":91.6478,"MEAN_ANOMALY":268.486,"EPHEMERIS_TYPE":0,"CLASSIFICATION_TYPE":"U","NORAD_CAT_ID":63694,"ELEMENT_SET_NO":999,"REV_AT_EPOCH":4110,"BSTAR":0.00019905071,"MEAN_MOTION_DOT":1.0e-6,"MEAN_MOTION_DDOT":0},{"OBJECT_NAME":"HULIANWANG DIGUI-28","OBJECT_ID":"2025-086J","EPOCH":"2026-03-05T06:56:48.689952","MEAN_MOTION":13.24421527,"ECCENTRICITY":0.000178,"INCLINATION":86.508,"RA_OF_ASC_NODE":347.9747,"ARG_OF_PERICENTER":91.4125,"MEAN_ANOMALY":268.7213,"EPHEMERIS_TYPE":0,"CLASSIFICATION_TYPE":"U","NORAD_CAT_ID":63695,"ELEMENT_SET_NO":999,"REV_AT_EPOCH":4110,"BSTAR":0.00014007313,"MEAN_MOTION_DOT":7.5e-7,"MEAN_MOTION_DDOT":0},{"OBJECT_NAME":"HULIANWANG DIGUI-29","OBJECT_ID":"2025-086K","EPOCH":"2026-03-05T06:46:02.745408","MEAN_MOTION":13.24420363,"ECCENTRICITY":0.00016616,"INCLINATION":86.5108,"RA_OF_ASC_NODE":348.0574,"ARG_OF_PERICENTER":92.0773,"MEAN_ANOMALY":268.0551,"EPHEMERIS_TYPE":0,"CLASSIFICATION_TYPE":"U","NORAD_CAT_ID":63696,"ELEMENT_SET_NO":999,"REV_AT_EPOCH":4110,"BSTAR":0.00015977535,"MEAN_MOTION_DOT":8.3e-7,"MEAN_MOTION_DDOT":0},{"OBJECT_NAME":"HULIANWANG DIGUI-30","OBJECT_ID":"2025-121A","EPOCH":"2026-03-05T05:07:52.154976","MEAN_MOTION":13.24423395,"ECCENTRICITY":0.00019922,"INCLINATION":86.4948,"RA_OF_ASC_NODE":48.6355,"ARG_OF_PERICENTER":78.6424,"MEAN_ANOMALY":281.4934,"EPHEMERIS_TYPE":0,"CLASSIFICATION_TYPE":"U","NORAD_CAT_ID":64283,"ELEMENT_SET_NO":999,"REV_AT_EPOCH":3639,"BSTAR":9.0273499e-5,"MEAN_MOTION_DOT":5.3e-7,"MEAN_MOTION_DDOT":0},{"OBJECT_NAME":"HULIANWANG DIGUI-31","OBJECT_ID":"2025-121B","EPOCH":"2026-03-05T06:46:05.947392","MEAN_MOTION":13.24419599,"ECCENTRICITY":0.00020128,"INCLINATION":86.4968,"RA_OF_ASC_NODE":48.6629,"ARG_OF_PERICENTER":78.8294,"MEAN_ANOMALY":281.3066,"EPHEMERIS_TYPE":0,"CLASSIFICATION_TYPE":"U","NORAD_CAT_ID":64284,"ELEMENT_SET_NO":999,"REV_AT_EPOCH":3640,"BSTAR":0.00010058715,"MEAN_MOTION_DOT":5.8e-7,"MEAN_MOTION_DDOT":0},{"OBJECT_NAME":"HULIANWANG DIGUI-32","OBJECT_ID":"2025-121C","EPOCH":"2026-03-05T06:34:42.471552","MEAN_MOTION":13.24425184,"ECCENTRICITY":0.00020078,"INCLINATION":86.491,"RA_OF_ASC_NODE":48.4951,"ARG_OF_PERICENTER":80.983,"MEAN_ANOMALY":279.1531,"EPHEMERIS_TYPE":0,"CLASSIFICATION_TYPE":"U","NORAD_CAT_ID":64285,"ELEMENT_SET_NO":999,"REV_AT_EPOCH":3640,"BSTAR":4.5235356e-5,"MEAN_MOTION_DOT":3.4e-7,"MEAN_MOTION_DDOT":0}]
