HULIANWANG DIGUI-17     
1 62977U 25030G   26064.28720573 -.00000092  00000+0  68522-4 0  9991
2 62977  50.0047 248.2162 0000753 157.8694 202.2211 13.29338222 52045
HULIANWANG DIGUI-18     
1 62978U 25030H   26064.27883255 -.00000091  00000+0  71781-4 0  9998
2 62978  50.0051 248.1829 0000772 158.8154 201.2750 13.29338246 52046
HULIANWANG DIGUI-19     
1 62979U 25030J   26064.16168615 -.00000086  00000+0  82460-4 0  9993
2 62979  50.0036 248.8510 0000811 153.4590 206.6323 13.29341421 52025
HULIANWANG DIGUI-20     
1 63687U 25086A   26064.29707607  .00000062  00000+0  11086-3 0  9993
2 63687  86.5126 348.1158 0001729  91.7978 268.3354 13.24420207 41124
HULIANWANG DIGUI-21     
1 63688U 25086B   26064.22902051  .00000061  00000+0  10696-3 0  9992
2 63688  86.5154 348.1679 0001618  94.6917 265.4402 13.24421805 41101
HULIANWANG DIGUI-22     
1 63689U 25086C   26064.23658455  .00000068  00000+0  12524-3 0  9999
2 63689  86.5119 348.0685 0001799  91.9832 268.1508 13.24421535 41102
HULIANWANG DIGUI-23     
1 63690U 25086D   26064.25164252  .00000078  00000+0  14763-3 0  9998
2 63690  86.5160 348.1999 0001744  88.2942 271.8392 13.24422261 41109
HULIANWANG DIGUI-24     
1 63691U 25086E   26064.25925474  .00000094  00000+0  18555-3 0  9991
2 63691  86.5167 348.2240 0001779  92.5386 267.5952 13.24420375 41103
HULIANWANG DIGUI-25     
1 63692U 25086F   26064.26678676  .00000107  00000+0  21452-3 0  9997
2 63692  86.5106 348.0434 0001679  91.3573 268.7753 13.24421841 41105
HULIANWANG DIGUI-26     
1 63693U 25086G   26064.24401441  .00000069  00000+0  12602-3 0  9994
2 63693  86.5154 348.1775 0001749  96.6626 263.4707 13.24421290 41102
HULIANWANG DIGUI-27     
1 63694U 25086H   26064.27442020  .00000100  00000+0  19905-3 0  9995
2 63694  86.5115 348.0753 0001783  91.6478 268.4860 13.24420217 41106
HULIANWANG DIGUI-28     
1 63695U 25086J   26064.28945243  .00000075  00000+0  14007-3 0  9991
2 63695  86.5080 347.9747 0001780  91.4125 268.7213 13.24421527 41103
HULIANWANG DIGUI-29     
1 63696U 25086K   26064.28197622  .00000083  00000+0  15978-3 0  9999
2 63696  86.5108 348.0574 0001661  92.0773 268.0551 13.24420363 41104
HULIANWANG DIGUI-30     
1 64283U 25121A   26064.21379809  .00000053  00000+0  90273-4 0  9993
2 64283  86.4948  48.6355 0001992  78.6424 281.4934 13.24423395 36395
HULIANWANG DIGUI-31     
1 64284U 25121B   26064.28201328  .00000058  00000+0  10059-3 0  9999
2 64284  86.4968  48.6629 0002012  78.8294 281.3066 13.24419599 36401
HULIANWANG DIGUI-32     
1 64285U 25121C   26064.27410268  .00000034  00000+0  45235-4 0  9993
2 64285  86.4910  48.4951 0002007  80.9830 279.1531 13.24425184 36408
